NORAD_CAT_ID,OBJECT_NAME,OBJECT_TYPE,EPOCH,MEAN_MOTION,ECCENTRICITY,INCLINATION,RA_OF_ASC_NODE,ARG_OF_PERICENTER,MEAN_ANOMALY,BSTAR,MEAN_MOTION_DOT,MEAN_MOTION_DDOT,TLE_LINE0,TLE_LINE1,TLE_LINE2,SEMIMAJOR_AXIS,PERIOD,APOGEE,PERIGEE,DECAYED
52569.0,STARLINK-3927,PAYLOAD,2023-03-15 02:57:44,15.08892683,0.0001602,53.2157,334.8659,63.9128,296.2028,0.0023266,0.00036988,0.0,0 STARLINK-3927,1 52569U 22051AN  23074.12342986  .00036988  00000-0  23266-2 0  9993,2 52569  53.2157 334.8659 0001602  63.9128 296.2028 15.08892683 47019,6917.719,95.434,540.693,538.476,0.0
52569.0,STARLINK-3927,PAYLOAD,2023-03-15 20:26:58,15.08861918,9.19e-05,53.2157,331.5952,79.5541,280.5554,0.0012781,0.00020124,0.0,0 STARLINK-3927,1 52569U 22051AN  23074.85206686  .00020124  00000-0  12781-2 0  9994,2 52569  53.2157 331.5952 0000919  79.5541 280.5554 15.08861918 47120,6917.813,95.436,540.314,539.043,0.0
52569.0,STARLINK-3927,PAYLOAD,2023-03-15 22:02:21,15.0886016,9.24e-05,53.215,331.2983,80.2208,279.8889,0.0013386,0.00021092,0.0,0 STARLINK-3927,1 52569U 22051AN  23074.91830662  .00021092  00000-0  13386-2 0  9995,2 52569  53.2150 331.2983 0000924  80.2208 279.8889 15.08860160 47062,6917.819,95.436,540.323,539.045,0.0
52569.0,STARLINK-3927,PAYLOAD,2023-03-16 02:48:30,15.08866071,0.0001212,53.2159,330.4059,71.4756,288.6368,0.0015879,0.00025092,0.0,0 STARLINK-3927,1 52569U 22051AN  23075.11702512  .00025092  00000-0  15879-2 0  9993,2 52569  53.2159 330.4059 0001212  71.4756 288.6368 15.08866071 47097,6917.801,95.436,540.504,538.827,0.0
52569.0,STARLINK-3927,PAYLOAD,2023-03-16 23:28:32,15.08828601,0.0001026,53.2157,326.5412,100.5656,259.5451,0.0012477,0.00019619,0.0,0 STARLINK-3927,1 52569U 22051AN  23075.97815798  .00019619  00000-0  12477-2 0  9997,2 52569  53.2157 326.5412 0001026 100.5656 259.5451 15.08828601 47299,6917.915,95.438,540.49,539.07,0.0
52569.0,STARLINK-3927,PAYLOAD,2023-03-17 09:00:51,15.08832429,0.0001088,53.2159,324.756,90.657,269.4547,0.00064556,9.999e-05,0.0,0 STARLINK-3927,1 52569U 22051AN  23076.37560093  .00009999  00000-0  64556-3 0  9993,2 52569  53.2159 324.7560 0001088  90.6570 269.4547 15.08832429 47353,6917.904,95.438,540.521,539.016,0.0
52569.0,STARLINK-3927,PAYLOAD,2023-03-17 21:43:57,15.0884376,0.0001009,53.2152,322.3773,97.8785,262.2322,0.00072142,0.00011213,0.0,0 STARLINK-3927,1 52569U 22051AN  23076.90552114  .00011213  00000-0  72142-3 0  9999,2 52569  53.2152 322.3773 0001009  97.8785 262.2322 15.08843760 47369,6917.869,95.437,540.432,539.036,0.0
52569.0,STARLINK-3927,PAYLOAD,2023-03-18 21:34:44,15.08842947,0.0001349,53.2163,317.9179,101.1932,258.9211,0.00020004,2.897e-05,0.0,0 STARLINK-3927,1 52569U 22051AN  23077.89912096  .00002897  00000-0  20004-3 0  9995,2 52569  53.2163 317.9179 0001349 101.1932 258.9211 15.08842947 47580,6917.871,95.437,540.67,538.803,0.0
52569.0,STARLINK-3927,PAYLOAD,2023-03-18 23:10:07,15.0884377,0.0001331,53.2161,317.6235,111.791,248.3224,0.00025786,3.819e-05,0.0,0 STARLINK-3927,1 52569U 22051AN  23077.96536003  .00003819  00000-0  25786-3 0  9990,2 52569  53.2161 317.6235 0001331 111.7910 248.3224 15.08843770 47528,6917.869,95.437,540.655,538.813,0.0
52569.0,STARLINK-3927,PAYLOAD,2023-03-19 08:42:25,15.08850402,0.0001114,53.2151,315.8355,89.0992,271.0128,0.00028159,4.198e-05,0.0,0 STARLINK-3927,1 52569U 22051AN  23078.36279665  .00004198  00000-0  28159-3 0  9991,2 52569  53.2151 315.8355 0001114  89.0992 271.0128 15.08850402 47588,6917.849,95.437,540.484,538.943,0.0
52569.0,STARLINK-3927,PAYLOAD,2023-03-19 21:25:30,15.08843971,0.000131,53.2162,313.458,94.0056,266.1085,-6.6822e-06,-3.94e-06,0.0,0 STARLINK-3927,1 52569U 22051AN  23078.89271835 -.00000394  00000-0 -66822-5 0  9997,2 52569  53.2162 313.4580 0001310  94.0056 266.1085 15.08843971 47668,6917.868,95.437,540.639,538.827,0.0
52569.0,STARLINK-3927,PAYLOAD,2023-03-20 00:36:16,15.08847135,0.0001465,53.2158,312.862,84.156,275.96,2.8006e-05,1.58e-06,0.0,0 STARLINK-3927,1 52569U 22051AN  23079.02519659  .00000158  00000-0  28006-4 0  9999,2 52569  53.2158 312.8620 0001465  84.1560 275.9600 15.08847135 47759,6917.859,95.437,540.737,538.71,0.0
52569.0,STARLINK-3927,PAYLOAD,2023-03-20 08:33:12,15.08842083,0.0001219,53.2153,311.3749,91.5224,268.5908,3.5506e-05,2.77e-06,0.0,0 STARLINK-3927,1 52569U 22051AN  23079.35639781  .00000277  00000-0  35506-4 0  9999,2 52569  53.2153 311.3749 0001219  91.5224 268.5908 15.08842083 47730,6917.874,95.437,540.582,538.896,0.0
52569.0,STARLINK-3927,PAYLOAD,2023-03-20 21:16:18,15.08840301,0.0001424,53.2157,308.9967,95.7803,264.3352,4.6741e-05,4.56e-06,0.0,0 STARLINK-3927,1 52569U 22051AN  23079.88631953  .00000456  00000-0  46741-4 0  9992,2 52569  53.2157 308.9967 0001424  95.7803 264.3352 15.08840301 47812,6917.879,95.438,540.73,538.759,0.0
52569.0,STARLINK-3927,PAYLOAD,2023-03-20 22:51:41,15.08841983,0.0001332,53.2156,308.6983,94.9371,265.1774,1.0771e-05,-1.16e-06,0.0,0 STARLINK-3927,1 52569U 22051AN  23079.95255834 -.00000116  00000-0  10771-4 0  9998,2 52569  53.2156 308.6983 0001332  94.9371 265.1774 15.08841983 47897,6917.874,95.437,540.661,538.818,0.0
52569.0,STARLINK-3927,PAYLOAD,2023-03-21 02:02:27,15.08844902,0.0001297,53.2148,308.1037,95.2674,264.8466,3.5749e-05,2.81e-06,0.0,0 STARLINK-3927,1 52569U 22051AN  23080.08503678  .00000281  00000-0  35749-4 0  9990,2 52569  53.2148 308.1037 0001297  95.2674 264.8466 15.08844902 47846,6917.865,95.437,540.628,538.833,0.0
52569.0,STARLINK-3927,PAYLOAD,2023-03-21 21:07:04,15.08848246,0.0001269,53.2146,304.5337,97.9464,262.1672,0.00017773,2.542e-05,0.0,0 STARLINK-3927,1 52569U 22051AN  23080.87991287  .00002542  00000-0  17773-3 0  9992,2 52569  53.2146 304.5337 0001269  97.9464 262.1672 15.08848246 47960,6917.855,95.437,540.598,538.842,0.0
52569.0,STARLINK-3927,PAYLOAD,2023-03-22 00:17:50,15.08851422,0.0001243,53.2143,303.9388,102.4591,257.654,0.00012557,1.712e-05,0.0,0 STARLINK-3927,1 52569U 22051AN  23081.01239028  .00001712  00000-0  12557-3 0  9990,2 52569  53.2143 303.9388 0001243 102.4591 257.6540 15.08851422 48055,6917.845,95.437,540.57,538.851,0.0
52569.0,STARLINK-3927,PAYLOAD,2023-03-22 20:57:51,15.0884029,0.0001158,53.2148,300.0749,91.3189,268.7935,9.8855e-05,1.286e-05,0.0,0 STARLINK-3927,1 52569U 22051AN  23081.87351795  .00001286  00000-0  98855-4 0  9992,2 52569  53.2148 300.0749 0001158  91.3189 268.7935 15.08840290 48189,6917.88,95.438,540.546,538.943,0.0
52569.0,STARLINK-3927,PAYLOAD,2023-03-23 20:48:38,15.08844982,0.0001002,53.2161,295.6124,101.4663,258.6442,0.00019082,2.751e-05,0.0,0 STARLINK-3927,1 52569U 22051AN  23082.86711708  .00002751  00000-0  19082-3 0  9998,2 52569  53.2161 295.6124 0001002 101.4663 258.6442 15.08844982 48260,6917.865,95.437,540.423,539.037,0.0
52569.0,STARLINK-3927,PAYLOAD,2023-03-23 23:59:25,15.08844648,0.0001026,53.2155,295.0166,104.4569,255.6537,0.00031898,4.793e-05,0.0,0 STARLINK-3927,1 52569U 22051AN  23082.99959751  .00004793  00000-0  31898-3 0  9991,2 52569  53.2155 295.0166 0001026 104.4569 255.6537 15.08844648 48358,6917.866,95.437,540.441,539.021,0.0
52569.0,STARLINK-3927,PAYLOAD,2023-03-24 20:39:24,15.08882039,0.0001044,53.2137,291.1527,90.6808,269.4304,0.00088852,0.00013897,0.0,0 STARLINK-3927,1 52569U 22051AN  23083.86070010  .00013897  00000-0  88852-3 0  9997,2 52569  53.2137 291.1527 0001044  90.6808 269.4304 15.08882039 48483,6917.752,95.435,540.339,538.895,0.0
52569.0,STARLINK-3927,PAYLOAD,2023-03-25 06:11:43,15.08822308,0.0001379,53.2141,289.3687,109.213,250.9012,-0.0015049,-0.00024147,0.0,0 STARLINK-3927,1 52569U 22051AN  23084.25814721 -.00024147  00000-0 -15049-2 0  9995,2 52569  53.2141 289.3687 0001379 109.2130 250.9012 15.08822308 48541,6917.934,95.439,540.753,538.845,0.0
52569.0,STARLINK-3927,PAYLOAD,2023-03-25 20:30:14,15.08793204,0.0001539,53.215,286.696,126.6962,233.4172,-0.0010695,-0.00017247,0.0,0 STARLINK-3927,1 52569U 22051AN  23084.85433028 -.00017247  00000-0 -10695-2 0  9993,2 52569  53.2150 286.6960 0001539 126.6962 233.4172 15.08793204 48634,6918.023,95.441,540.953,538.824,0.0
52569.0,STARLINK-3927,PAYLOAD,2023-03-26 06:02:33,15.08801323,0.0001227,53.2145,284.9094,134.5489,225.5603,-1.197e-05,-4.78e-06,0.0,0 STARLINK-3927,1 52569U 22051AN  23085.25177854 -.00000478  00000-0 -11970-4 0  9997,2 52569  53.2145 284.9094 0001227 134.5489 225.5603 15.08801323 48692,6917.999,95.44,540.712,539.015,0.0
52569.0,STARLINK-3927,PAYLOAD,2023-03-26 20:21:01,15.08845984,0.0001386,53.2142,282.2322,138.9013,221.2084,0.0014788,0.00023329,0.0,0 STARLINK-3927,1 52569U 22051AN  23085.84793688  .00023329  00000-0  14788-2 0  9997,2 52569  53.2142 282.2322 0001386 138.9013 221.2084 15.08845984 48788,6917.862,95.437,540.686,538.768,0.0
52569.0,STARLINK-3927,PAYLOAD,2023-03-26 21:56:24,15.08851858,0.0001409,53.2146,281.9344,135.6694,224.4411,0.0015961,0.00025214,0.0,0 STARLINK-3927,1 52569U 22051AN  23085.91417616  .00025214  00000-0  15961-2 0  9998,2 52569  53.2146 281.9344 0001409 135.6694 224.4411 15.08851858 48727,6917.844,95.437,540.684,538.734,0.0
52569.0,STARLINK-3927,PAYLOAD,2023-03-27 05:53:19,15.0886266,0.000117,53.2136,280.4465,134.8021,225.3067,0.00070016,0.0001088,0.0,0 STARLINK-3927,1 52569U 22051AN  23086.24536964  .00010880  00000-0  70016-3 0  9999,2 52569  53.2136 280.4465 0001170 134.8021 225.3067 15.08862660 48779,6917.811,95.436,540.486,538.867,0.0
52569.0,STARLINK-3927,PAYLOAD,2023-03-27 21:47:11,15.08849851,0.0001327,53.2149,277.4764,133.5794,226.5308,0.00048703,7.474e-05,0.0,0 STARLINK-3927,1 52569U 22051AN  23086.90776964  .00007474  00000-0  48703-3 0  9991,2 52569  53.2149 277.4764 0001327 133.5794 226.5308 15.08849851 48945,6917.85,95.437,540.633,538.797,0.0
52569.0,STARLINK-3927,PAYLOAD,2023-03-28 12:05:38,15.08851779,0.0001005,53.2151,274.7994,159.9593,200.1438,0.00023605,3.472e-05,0.0,0 STARLINK-3927,1 52569U 22051AN  23087.50392282  .00003472  00000-0  23605-3 0  9993,2 52569  53.2151 274.7994 0001005 159.9593 200.1438 15.08851779 48961,6917.844,95.437,540.405,539.014,0.0
